NORAD_CAT_ID,OBJECT_NAME,OBJECT_TYPE,EPOCH,MEAN_MOTION,ECCENTRICITY,INCLINATION,RA_OF_ASC_NODE,ARG_OF_PERICENTER,MEAN_ANOMALY,BSTAR,MEAN_MOTION_DOT,MEAN_MOTION_DDOT,TLE_LINE0,TLE_LINE1,TLE_LINE2,SEMIMAJOR_AXIS,PERIOD,APOGEE,PERIGEE,DECAYED
51892.0,STARLINK-3587,PAYLOAD,2022-04-24 20:00:01,15.7324005,0.0002066,53.2117,245.6697,33.0468,74.7462,-0.00050527,-0.00071065,0.0,0 STARLINK-3587,1 51892U 22022AS  22114.83334491 -.00071065  00000-0 -50527-3 0  9991,2 51892  53.2117 245.6697 0002066  33.0468  74.7462 15.73240050  9436,6727.781,91.531,351.036,348.256,0.0
51892.0,STARLINK-3587,PAYLOAD,2022-04-25 14:00:01,15.73156017,0.0001999,53.2118,241.9572,31.8291,6.0357,0.00026949,0.00037299,0.0,0 STARLINK-3587,1 51892U 22022AS  22115.58334491  .00037299  00000-0  26949-3 0  9994,2 51892  53.2118 241.9572 0001999  31.8291   6.0357 15.73156017  9555,6728.021,91.536,351.231,348.541,0.0
51892.0,STARLINK-3587,PAYLOAD,2022-04-25 22:00:00,15.73228419,0.0002091,53.2119,240.3077,27.0633,99.6813,-0.00026045,-0.00037061,0.0,0 STARLINK-3587,1 51892U 22022AS  22115.91667824 -.00037061  00000-0 -26045-3 0  9996,2 51892  53.2119 240.3077 0002091  27.0633  99.6813 15.73228419  3702,6727.814,91.532,351.086,348.272,0.0
51892.0,STARLINK-3587,PAYLOAD,2022-04-26 14:00:01,15.73272937,0.0002126,53.2123,237.0081,23.047,281.6411,-0.00050107,-0.00070583,0.0,0 STARLINK-3587,1 51892U 22022AS  22116.58335648 -.00070583  00000-0 -50107-3 0  9998,2 51892  53.2123 237.0081 0002126  23.0470 281.6411 15.73272937  9717,6727.687,91.529,350.983,348.122,0.0
51892.0,STARLINK-3587,PAYLOAD,2022-04-26 22:00:00,15.73492062,0.0002393,53.214,235.3516,19.7081,13.8786,-0.0056126999999999,-0.00732604,0.0,0 STARLINK-3587,1 51892U 22022AS  22116.91667824 -.00732604  00000-0 -56127-2 0  9995,2 51892  53.2140 235.3516 0002393  19.7081  13.8786 15.73492062  9764,6727.063,91.516,350.537,347.3180000000001,0.0
51892.0,STARLINK-3587,PAYLOAD,2022-04-27 06:00:00,15.73127601,0.000195,53.2121,233.7069,21.183000000000003,101.3693,0.00073235,0.00103113,0.0,0 STARLINK-3587,1 51892U 22022AS  22117.25001157  .00103113  00000-0  73235-3 0  9999,2 51892  53.2121 233.7069 0001950  21.1830 101.3693 15.73127601  9815,6728.102,91.537,351.279,348.655,0.0
51892.0,STARLINK-3587,PAYLOAD,2022-04-27 14:00:01,15.73208555,0.0002239,53.2123,232.0593,19.7495,191.7458,0.00019921,0.0002744,0.0,0 STARLINK-3587,1 51892U 22022AS  22117.58335648  .00027440  00000-0  19921-3 0  9990,2 51892  53.2123 232.0593 0002239  19.7495 191.7458 15.73208555  3670,6727.871,91.533,351.242,348.22900000000016,0.0
51892.0,STARLINK-3587,PAYLOAD,2022-04-27 20:00:01,15.73247038,0.0002356,53.2123,230.8224,18.2845,169.852,-0.00038834,-0.00054886,0.0,0 STARLINK-3587,1 51892U 22022AS  22117.83334491 -.00054886  00000-0 -38834-3 0  9993,2 51892  53.2123 230.8224 0002356  18.2845 169.8520 15.73247038  9918,6727.761,91.53,351.211,348.041,0.0
51892.0,STARLINK-3587,PAYLOAD,2022-04-28 06:00:00,15.73167193,0.0002205,53.213,228.7578,19.9754,9.3766,0.00090438,0.00128082,0.0,0 STARLINK-3587,1 51892U 22022AS  22118.25001157  .00128082  00000-0  90438-3 0  9996,2 51892  53.2130 228.7578 0002205  19.9754   9.3766 15.73167193  9973,6727.989000000001,91.535,351.337,348.37,0.0
51892.0,STARLINK-3587,PAYLOAD,2022-04-28 14:00:01,15.73283823,0.0002539,53.213,227.1096,17.6213,100.6683,-0.00037487,-0.000531,0.0,0 STARLINK-3587,1 51892U 22022AS  22118.58334491 -.00053100  00000-0 -37487-3 0  9997,2 51892  53.2130 227.1096 0002539  17.6213 100.6683 15.73283823  3758,6727.656,91.528,351.22900000000016,347.81300000000016,0.0
51892.0,STARLINK-3587,PAYLOAD,2022-04-28 20:00:01,15.7327178,0.0002626,53.2126,225.8728,16.008,79.0441,-0.00034627,-0.00049095,0.0,0 STARLINK-3587,1 51892U 22022AS  22118.83334491 -.00049095  00000-0 -34627-3 0  9996,2 51892  53.2126 225.8728 0002626  16.0080  79.0441 15.73271780 10064,6727.691,91.529,351.32199999999995,347.789,0.0
51892.0,STARLINK-3587,PAYLOAD,2022-04-29 06:00:00,15.73188261,0.0002381,53.2129,223.8089,22.3298,273.9486,-0.00016683,-0.0002396,0.0,0 STARLINK-3587,1 51892U 22022AS  22119.25001157 -.00023960  00000-0 -16683-3 0  9998,2 51892  53.2129 223.8089 0002381  22.3298 273.9486 15.73188261 10137,6727.929,91.534,351.396,348.19199999999995,0.0
51892.0,STARLINK-3587,PAYLOAD,2022-04-29 14:00:01,15.73185265,0.000263,53.213,222.1615,16.8752,8.305,-0.00046937,-0.00065952,0.0,0 STARLINK-3587,1 51892U 22022AS  22119.58334491 -.00065952  00000-0 -46937-3 0  9996,2 51892  53.2130 222.1615 0002630  16.8752   8.3050 15.73185265  3721,6727.937,91.534,351.57199999999995,348.033,0.0
51892.0,STARLINK-3587,PAYLOAD,2022-04-29 22:00:00,15.73158168,0.0002686,53.2129,220.5112,15.4564,98.6274,-0.00010401,-0.00015169,0.0,0 STARLINK-3587,1 51892U 22022AS  22119.91667824 -.00015169  00000-0 -10401-3 0  9994,2 51892  53.2129 220.5112 0002686  15.4564  98.6274 15.73158168  3687,6728.014,91.536,351.68699999999984,348.07199999999995,0.0
51892.0,STARLINK-3587,PAYLOAD,2022-04-30 06:00:00,15.73166824,0.0002551,53.2134,218.8604,19.2718,183.6634,0.00018642,0.00025587,0.0,0 STARLINK-3587,1 51892U 22022AS  22120.25001157  .00025587  00000-0  18642-3 0  9992,2 51892  53.2134 218.8604 0002551  19.2718 183.6634 15.73166824 10291,6727.99,91.535,351.571,348.13800000000015,0.0
51892.0,STARLINK-3587,PAYLOAD,2022-04-30 12:00:00,15.73148641,0.0002799,53.2133,217.625,16.2184,163.3812,0.00010496,0.00014103,0.0,0 STARLINK-3587,1 51892U 22022AS  22120.50001157  .00014103  00000-0  10496-3 0  9991,2 51892  53.2133 217.6250 0002799  16.2184 163.3812 15.73148641 10337,6728.042,91.536,351.79,348.023,0.0
51892.0,STARLINK-3587,PAYLOAD,2022-04-30 14:00:01,15.73129592,0.0002877,53.2133,217.2131,16.2674,275.5551,0.00047244,0.00066015,0.0,0 STARLINK-3587,1 51892U 22022AS  22120.58334491  .00066015  00000-0  47244-3 0  9999,2 51892  53.2133 217.2131 0002877  16.2674 275.5551 15.73129592  3682,6728.096,91.537,351.897,348.025,0.0
51892.0,STARLINK-3587,PAYLOAD,2022-04-30 22:00:00,15.73244598,0.000282,53.2129,215.5627,11.9838,8.7233,-0.00052473,-0.0007377999999999,0.0,0 STARLINK-3587,1 51892U 22022AS  22120.91667824 -.00073780  00000-0 -52473-3 0  9994,2 51892  53.2129 215.5627 0002820  11.9838   8.7233 15.73244598 10393,6727.768,91.531,351.53,347.736,0.0
51892.0,STARLINK-3587,PAYLOAD,2022-05-01 14:00:01,15.73229865,0.0002966,53.2129,212.2649,12.3679,186.1884,-0.00037727,-0.00053317,0.0,0 STARLINK-3587,1 51892U 22022AS  22121.58334491 -.00053317  00000-0 -37727-3 0  9998,2 51892  53.2129 212.2649 0002966  12.3679 186.1884 15.73229865 10506,6727.81,91.531,351.67,347.68,0.0
51892.0,STARLINK-3587,PAYLOAD,2022-05-01 22:00:01,15.73196915,0.000293,53.2127,210.6141,12.1245,275.4452,-0.00022746,-0.00032426,0.0,0 STARLINK-3587,1 51892U 22022AS  22121.91668981 -.00032426  00000-0 -22746-3 0  9992,2 51892  53.2127 210.6141 0002930  12.1245 275.4452 15.73196915  3718,6727.904,91.533,351.74,347.798,0.0
51892.0,STARLINK-3587,PAYLOAD,2022-05-02 06:00:00,15.73173032,0.0002844,53.2131,208.9636,13.0581,3.3345,0.00052695,0.00073911,0.0,0 STARLINK-3587,1 51892U 22022AS  22122.25001157  .00073911  00000-0  52695-3 0  9994,2 51892  53.2131 208.9636 0002844  13.0581   3.3345 15.73173032 10609,6727.972,91.535,351.75,347.9240000000001,0.0
51892.0,STARLINK-3587,PAYLOAD,2022-05-02 14:00:01,15.73214913,0.0003149,53.213,207.3162,10.5222,94.7919,-0.0002392,-0.00034088,0.0,0 STARLINK-3587,1 51892U 22022AS  22122.58334491 -.00034088  00000-0 -23920-3 0  9993,2 51892  53.2130 207.3162 0003149  10.5222  94.7919 15.73214913 10658,6727.853,91.532,351.836,347.599,0.0
51892.0,STARLINK-3587,PAYLOAD,2022-05-02 22:00:01,15.73208038,0.0003082,53.2125,205.6653,9.0761,185.2381,0.00015203,0.00020778,0.0,0 STARLINK-3587,1 51892U 22022AS  22122.91668981  .00020778  00000-0  15203-3 0  9998,2 51892  53.2125 205.6653 0003082   9.0761 185.2381 15.73208038 10712,6727.871999999999,91.533,351.811,347.664,0.0
51892.0,STARLINK-3587,PAYLOAD,2022-05-03 12:00:00,15.73198447,0.0003293,53.2121,202.7797,14.1635,245.751,0.0001854,0.0002548,0.0,0 STARLINK-3587,1 51892U 22022AS  22123.50001157  .00025480  00000-0  18540-3 0  9992,2 51892  53.2121 202.7797 0003293  14.1635 245.7510 15.73198447 10804,6727.9,91.533,351.98,347.5490000000001,0.0
51892.0,STARLINK-3587,PAYLOAD,2022-05-03 14:00:01,15.73186866,0.0003318,53.2123,202.3676,14.3054,357.8456,0.00047093,0.00065968,0.0,0 STARLINK-3587,1 51892U 22022AS  22123.58334491  .00065968  00000-0  47093-3 0  9990,2 51892  53.2123 202.3676 0003318  14.3054 357.8456 15.73186866  3700,6727.933000000001,91.534,352.03,347.565,0.0
51892.0,STARLINK-3587,PAYLOAD,2022-05-03 22:00:00,15.73243078,0.0003206,53.2133,200.7126,11.279000000000002,89.8241,-0.00033615,-0.00047635,0.0,0 STARLINK-3587,1 51892U 22022AS  22123.91667824 -.00047635  00000-0 -33615-3 0  9994,2 51892  53.2133 200.7126 0003206  11.2790  89.8241 15.73243078  3705,6727.772,91.531,351.7940000000001,347.48,0.0
51892.0,STARLINK-3587,PAYLOAD,2022-05-04 06:00:02,15.73372116,0.0003136,53.2152,199.0566,11.3313,178.7803,-0.0043506,-0.00575764,0.0,0 STARLINK-3587,1 51892U 22022AS  22124.25002315 -.00575764  00000-0 -43506-2 0  9998,2 51892  53.2152 199.0566 0003136  11.3313 178.7803 15.73372116 10928,6727.405,91.523,351.379,347.16,0.0
51892.0,STARLINK-3587,PAYLOAD,2022-05-04 12:00:00,15.73047493,0.0003281,53.2166,197.8179,10.6737,156.0802,-0.0027962,-0.0037386,0.0,0 STARLINK-3587,1 51892U 22022AS  22124.50001157 -.00373860  00000-0 -27962-2 0  9990,2 51892  53.2166 197.8179 0003281  10.6737 156.0802 15.73047493 10961,6728.33,91.542,352.403,347.987,0.0
51892.0,STARLINK-3587,PAYLOAD,2022-05-04 14:00:01,15.73124838,0.0003225,53.2173,197.4049,7.9233,270.9627,-0.0050442,-0.00654351,0.0,0 STARLINK-3587,1 51892U 22022AS  22124.58334491 -.00654351  00000-0 -50442-2 0  9994,2 51892  53.2173 197.4049 0003225   7.9233 270.9627 15.73124838  3703,6728.109,91.538,352.144,347.805,0.0
